{
    "links": {
        "self": "http://www.neowsapp.com/rest/v1/neo/3753798?api_key=iIulBulltgU6a56xZRHN4H3l9WmuAYTsLGpBGhQ2"
    },
    "id": "3753798",
    "neo_reference_id": "3753798",
    "name": "(2016 LD9)",
    "designation": "2016 LD9",
    "nasa_jpl_url": "http://ssd.jpl.nasa.gov/sbdb.cgi?sstr=3753798",
    "absolute_magnitude_h": 22.4,
    "estimated_diameter": {
        "kilometers": {
            "estimated_diameter_min": 0.0880146521,
            "estimated_diameter_max": 0.1968067451
        },
        "meters": {
            "estimated_diameter_min": 88.0146520901,
            "estimated_diameter_max": 196.8067450894
        },
        "miles": {
            "estimated_diameter_min": 0.0546897524,
            "estimated_diameter_max": 0.122290004
        },
        "feet": {
            "estimated_diameter_min": 288.7619911632,
            "estimated_diameter_max": 645.6914415591
        }
    },
    "is_potentially_hazardous_asteroid": false,
    "close_approach_data": [
        {
            "close_approach_date": "2016-05-31",
            "close_approach_date_full": "2016-May-31 08:56",
            "epoch_date_close_approach": 1464684960000,
            "relative_velocity": {
                "kilometers_per_second": "18.2718811382",
                "kilometers_per_hour": "65778.7720974278",
                "miles_per_hour": "40872.3709179823"
            },
            "miss_distance": {
                "astronomical": "0.0518450606",
                "lunar": "20.1677285734",
                "kilometers": "7755910.635780922",
                "miles": "4819299.3951918436"
            },
            "orbiting_body": "Earth"
        },
        {
            "close_approach_date": "2050-05-13",
            "close_approach_date_full": "2050-May-13 00:10",
            "epoch_date_close_approach": 2536013400000,
            "relative_velocity": {
                "kilometers_per_second": "12.5826030877",
                "kilometers_per_hour": "45297.3711155782",
                "miles_per_hour": "28146.024846788"
            },
            "miss_distance": {
                "astronomical": "0.1490600798",
                "lunar": "57.9843710422",
                "kilometers": "22299070.440110026",
                "miles": "13855999.8602333188"
            },
            "orbiting_body": "Earth"
        }
    ],
    "orbital_data": {
        "orbit_id": "10",
        "orbit_determination_date": "2017-08-10 06:19:58",
        "first_observation_date": "2016-06-01",
        "last_observation_date": "2016-06-12",
        "data_arc_in_days": 11,
        "observations_used": 97,
        "orbit_uncertainty": "8",
        "minimum_orbit_intersection": ".00564236",
        "jupiter_tisserand_invariant": "3.815",
        "epoch_osculation": "2457548.5",
        "eccentricity": ".6111381706101968",
        "semi_major_axis": "1.803410922629731",
        "inclination": "4.183560810841749",
        "ascending_node_longitude": "71.17428116213264",
        "orbital_period": "884.5868325927768",
        "perihelion_distance": ".7012776705153502",
        "perihelion_argument": "96.37844842537444",
        "aphelion_distance": "2.905544174744113",
        "perihelion_time": "2457490.759156465542",
        "mean_anomaly": "23.49877129809609",
        "mean_motion": ".4069696571729635",
        "equinox": "J2000",
        "orbit_class": {
            "orbit_class_type": "APO",
            "orbit_class_description": "Near-Earth asteroid orbits which cross the Earth’s orbit similar to that of 1862 Apollo",
            "orbit_class_range": "a (semi-major axis) > 1.0 AU; q (perihelion) < 1.017 AU"
        }
    },
    "is_sentry_object": false
}